CCSDS_OMM_VERS = 2.0
CREATION_DATE  = 
ORIGINATOR     = 

OBJECT_NAME    = CZ-2C R/B
OBJECT_ID      = 2022-132E
CENTER_NAME    = EARTH
REF_FRAME      = TEME
TIME_SYSTEM    = UTC
MEAN_ELEMENT_THEORY = SGP/SGP4

EPOCH          = 2026-01-22T22:49:43.453632
MEAN_MOTION    = 15.57831692
ECCENTRICITY   = .00166234
INCLINATION    = 97.2957
RA_OF_ASC_NODE = 25.0283
ARG_OF_PERICENTER = 258.9218
MEAN_ANOMALY   = 101.0169

EPHEMERIS_TYPE = 0
CLASSIFICATION_TYPE = U
NORAD_CAT_ID   = 54039
ELEMENT_SET_NO = 999
REV_AT_EPOCH   = 18324
BSTAR          = .50910153E-3
MEAN_MOTION_DOT = .38145E-3
MEAN_MOTION_DDOT = 0

CCSDS_OMM_VERS = 2.0
CREATION_DATE  = 
ORIGINATOR     = 

OBJECT_NAME    = GSLV R/B
OBJECT_ID      = 2022-138AN
CENTER_NAME    = EARTH
REF_FRAME      = TEME
TIME_SYSTEM    = UTC
MEAN_ELEMENT_THEORY = SGP/SGP4

EPOCH          = 2026-01-22T20:27:21.254976
MEAN_MOTION    = 14.96399086
ECCENTRICITY   = .00202179
INCLINATION    = 87.3846
RA_OF_ASC_NODE = 181.7032
ARG_OF_PERICENTER = 323.4263
MEAN_ANOMALY   = 36.5587

EPHEMERIS_TYPE = 0
CLASSIFICATION_TYPE = U
NORAD_CAT_ID   = 54149
ELEMENT_SET_NO = 999
REV_AT_EPOCH   = 17707
BSTAR          = .37483338E-3
MEAN_MOTION_DOT = .4289E-4
MEAN_MOTION_DDOT = 0

CCSDS_OMM_VERS = 2.0
CREATION_DATE  = 
ORIGINATOR     = 

OBJECT_NAME    = XRISM
OBJECT_ID      = 2023-137A
CENTER_NAME    = EARTH
REF_FRAME      = TEME
TIME_SYSTEM    = UTC
MEAN_ELEMENT_THEORY = SGP/SGP4

EPOCH          = 2026-01-22T20:49:40.305504
MEAN_MOTION    = 15.10876437
ECCENTRICITY   = .00080149
INCLINATION    = 31.0009
RA_OF_ASC_NODE = 219.9025
ARG_OF_PERICENTER = 300.1106
MEAN_ANOMALY   = 59.8738

EPHEMERIS_TYPE = 0
CLASSIFICATION_TYPE = U
NORAD_CAT_ID   = 57800
ELEMENT_SET_NO = 999
REV_AT_EPOCH   = 13085
BSTAR          = .36669966E-3
MEAN_MOTION_DOT = .6356E-4
MEAN_MOTION_DDOT = 0

CCSDS_OMM_VERS = 2.0
CREATION_DATE  = 
ORIGINATOR     = 

OBJECT_NAME    = ACS3
OBJECT_ID      = 2024-077B
CENTER_NAME    = EARTH
REF_FRAME      = TEME
TIME_SYSTEM    = UTC
MEAN_ELEMENT_THEORY = SGP/SGP4

EPOCH          = 2026-01-22T19:33:08.723520
MEAN_MOTION    = 13.87577088
ECCENTRICITY   = .00519172
INCLINATION    = 97.2355
RA_OF_ASC_NODE = 334.2344
ARG_OF_PERICENTER = 229.2389
MEAN_ANOMALY   = 130.4262

EPHEMERIS_TYPE = 0
CLASSIFICATION_TYPE = U
NORAD_CAT_ID   = 59588
ELEMENT_SET_NO = 999
REV_AT_EPOCH   = 8783
BSTAR          = .17235597E-1
MEAN_MOTION_DOT = .20613E-3
MEAN_MOTION_DDOT = 0

CCSDS_OMM_VERS = 2.0
CREATION_DATE  = 
ORIGINATOR     = 

OBJECT_NAME    = SZ-21 MODULE
OBJECT_ID      = 2025-246C
CENTER_NAME    = EARTH
REF_FRAME      = TEME
TIME_SYSTEM    = UTC
MEAN_ELEMENT_THEORY = SGP/SGP4

EPOCH          = 2026-01-22T14:32:34.858464
MEAN_MOTION    = 15.65057318
ECCENTRICITY   = .00030664
INCLINATION    = 41.4760
RA_OF_ASC_NODE = 126.2942
ARG_OF_PERICENTER = 222.5828
MEAN_ANOMALY   = 137.4775

EPHEMERIS_TYPE = 0
CLASSIFICATION_TYPE = U
NORAD_CAT_ID   = 66515
ELEMENT_SET_NO = 999
REV_AT_EPOCH   = 1084
BSTAR          = .34738616E-3
MEAN_MOTION_DOT = .35014E-3
MEAN_MOTION_DDOT = 0

