CZ-2C R/B               
1 54039U 22132E   26022.95119738  .00038145  00000+0  50910-3 0  9994
2 54039  97.2957  25.0283 0016623 258.9218 101.0169 15.57831692183248
GSLV R/B                
1 54149U 22138AN  26022.85232934  .00004289  00000+0  37483-3 0  9997
2 54149  87.3846 181.7032 0020217 323.4263  36.5587 14.96399086177079
XRISM                   
1 57800U 23137A   26022.86782761  .00006356  00000+0  36670-3 0  9997
2 57800  31.0009 219.9025 0008014 300.1106  59.8738 15.10876437130856
ACS3                    
1 59588U 24077B   26022.81468430  .00020613  00000+0  17236-1 0  9992
2 59588  97.2355 334.2344 0051917 229.2389 130.4262 13.87577088 87837
SZ-21 MODULE            
1 66515U 25246C   26022.60595901  .00035014  00000+0  34739-3 0  9990
2 66515  41.4760 126.2942 0003066 222.5828 137.4775 15.65057318 10845
